[{"OBJECT_NAME":"STARLINK-33998","OBJECT_ID":"2025-098AB","EPOCH":"2026-03-09T21:14:05.678016","MEAN_MOTION":14.98318546,"ECCENTRICITY":0.00028007,"INCLINATION":70.0003,"RA_OF_ASC_NODE":273.8837,"ARG_OF_PERICENTER":263.9034,"MEAN_ANOMALY":96.1806,"EPHEMERIS_TYPE":0,"CLASSIFICATION_TYPE":"U","NORAD_CAT_ID":63951,"ELEMENT_SET_NO":999,"REV_AT_EPOCH":4658,"BSTAR":-0.00016876165,"MEAN_MOTION_DOT":-2.105e-5,"MEAN_MOTION_DDOT":0},{"OBJECT_NAME":"CZ-6A DEB","OBJECT_ID":"2022-151BA","EPOCH":"2026-03-08T17:30:58.855968","MEAN_MOTION":14.9439792,"ECCENTRICITY":0.00472807,"INCLINATION":98.5596,"RA_OF_ASC_NODE":128.1704,"ARG_OF_PERICENTER":200.9968,"MEAN_ANOMALY":158.931,"EPHEMERIS_TYPE":0,"CLASSIFICATION_TYPE":"U","NORAD_CAT_ID":54307,"ELEMENT_SET_NO":999,"REV_AT_EPOCH":10452,"BSTAR":0.0069448926,"MEAN_MOTION_DOT":0.00077164,"MEAN_MOTION_DDOT":0}]
